HAWK-7A                 
1 56191U 23054P   26116.60624492  .00006887  00000+0  26410-3 0  9999
2 56191  97.2769   5.2571 0002252 178.9231 181.2013 15.26806693169150
HAWK-7B                 
1 56193U 23054R   26116.60617903  .00006972  00000+0  26731-3 0  9991
2 56193  97.2797   3.5024 0001378 173.0538 187.0721 15.26807029169155
HAWK-7C                 
1 56200U 23054Y   26116.67161095  .00006859  00000+0  26302-3 0  9991
2 56200  97.2772   4.3512 0001928 166.3843 193.7448 15.26808700169161
