[{"OBJECT_NAME":"HAWK-7A","OBJECT_ID":"2023-054P","EPOCH":"2026-04-26T14:32:59.561088","MEAN_MOTION":15.26806693,"ECCENTRICITY":0.0002252,"INCLINATION":97.2769,"RA_OF_ASC_NODE":5.2571,"ARG_OF_PERICENTER":178.9231,"MEAN_ANOMALY":181.2013,"EPHEMERIS_TYPE":0,"CLASSIFICATION_TYPE":"U","NORAD_CAT_ID":56191,"ELEMENT_SET_NO":999,"REV_AT_EPOCH":16915,"BSTAR":0.0002641,"MEAN_MOTION_DOT":6.887e-5,"MEAN_MOTION_DDOT":0},{"OBJECT_NAME":"HAWK-7B","OBJECT_ID":"2023-054R","EPOCH":"2026-04-26T14:32:53.868192","MEAN_MOTION":15.26807029,"ECCENTRICITY":0.0001378,"INCLINATION":97.2797,"RA_OF_ASC_NODE":3.5024,"ARG_OF_PERICENTER":173.0538,"MEAN_ANOMALY":187.0721,"EPHEMERIS_TYPE":0,"CLASSIFICATION_TYPE":"U","NORAD_CAT_ID":56193,"ELEMENT_SET_NO":999,"REV_AT_EPOCH":16915,"BSTAR":0.00026731,"MEAN_MOTION_DOT":6.972e-5,"MEAN_MOTION_DDOT":0},{"OBJECT_NAME":"HAWK-7C","OBJECT_ID":"2023-054Y","EPOCH":"2026-04-26T16:07:07.186080","MEAN_MOTION":15.268087,"ECCENTRICITY":0.0001928,"INCLINATION":97.2772,"RA_OF_ASC_NODE":4.3512,"ARG_OF_PERICENTER":166.3843,"MEAN_ANOMALY":193.7448,"EPHEMERIS_TYPE":0,"CLASSIFICATION_TYPE":"U","NORAD_CAT_ID":56200,"ELEMENT_SET_NO":999,"REV_AT_EPOCH":16916,"BSTAR":0.00026302,"MEAN_MOTION_DOT":6.859e-5,"MEAN_MOTION_DDOT":0}]
